TIANMU-1 07             
1 57399U 23101A   26065.57454230  .00008352  00000+0  29795-3 0  9991
2 57399  97.2728 118.5929 0004609 142.4105 217.7458 15.29118809145964
STARLINK-31465          
1 59012U 24036Q   26068.26470372  .00000126  00000+0  16379-4 0  9993
2 59012  53.1596  80.4213 0001008  87.4556 272.6561 15.30190416115253
