[{"OBJECT_NAME":"TIANMU-1 07","OBJECT_ID":"2023-101A","EPOCH":"2026-03-06T13:47:20.454720","MEAN_MOTION":15.29118809,"ECCENTRICITY":0.00046097,"INCLINATION":97.2728,"RA_OF_ASC_NODE":118.5929,"ARG_OF_PERICENTER":142.4105,"MEAN_ANOMALY":217.7458,"EPHEMERIS_TYPE":0,"CLASSIFICATION_TYPE":"U","NORAD_CAT_ID":57399,"ELEMENT_SET_NO":999,"REV_AT_EPOCH":14596,"BSTAR":0.00029794732,"MEAN_MOTION_DOT":8.352e-5,"MEAN_MOTION_DDOT":0},{"OBJECT_NAME":"STARLINK-31465","OBJECT_ID":"2024-036Q","EPOCH":"2026-03-09T06:21:10.401408","MEAN_MOTION":15.30190416,"ECCENTRICITY":0.00010082,"INCLINATION":53.1596,"RA_OF_ASC_NODE":80.4213,"ARG_OF_PERICENTER":87.4556,"MEAN_ANOMALY":272.6561,"EPHEMERIS_TYPE":0,"CLASSIFICATION_TYPE":"U","NORAD_CAT_ID":59012,"ELEMENT_SET_NO":999,"REV_AT_EPOCH":11525,"BSTAR":1.637871e-5,"MEAN_MOTION_DOT":1.26e-6,"MEAN_MOTION_DDOT":0}]
